NORAD_CAT_ID,OBJECT_NAME,OBJECT_TYPE,EPOCH,MEAN_MOTION,ECCENTRICITY,INCLINATION,RA_OF_ASC_NODE,ARG_OF_PERICENTER,MEAN_ANOMALY,BSTAR,MEAN_MOTION_DOT,MEAN_MOTION_DDOT,TLE_LINE0,TLE_LINE1,TLE_LINE2,SEMIMAJOR_AXIS,PERIOD,APOGEE,PERIGEE,DECAYED
50163.0,STARLINK-3306,PAYLOAD,2022-09-09 02:49:20,15.08840583,0.0001848,53.2168,214.3579,50.572,309.5435,9.9024e-05,1.288e-05,0.0,0 STARLINK-3306,1 50163U 21125H   22252.11760257  .00001288  00000-0  99024-4 0  9995,2 50163  53.2168 214.3579 0001848  50.5720 309.5435 15.08840583 43382,6917.879,95.438,541.0219999999998,538.465,0.0
50163.0,STARLINK-3306,PAYLOAD,2022-09-09 07:35:30,15.08841833,0.0001891,53.2168,213.4658,49.8408,310.2749,7.4201e-05,8.93e-06,0.0,0 STARLINK-3306,1 50163U 21125H   22252.31632256  .00000893  00000-0  74201-4 0  9995,2 50163  53.2168 213.4658 0001891  49.8408 310.2749 15.08841833 43894,6917.875,95.437,541.048,538.432,0.0
50163.0,STARLINK-3306,PAYLOAD,2022-09-10 04:15:31,15.08828918,0.0001996,53.2171,209.6,46.2543,313.8614,1.4295999999999992e-05,-6.1e-07,0.0,0 STARLINK-3306,1 50163U 21125H   22253.17745325 -.00000061  00000-0  14296-4 0  9998,2 50163  53.2171 209.6000 0001996  46.2543 313.8614 15.08828918 43544,6917.9140000000025,95.438,541.16,538.398,0.0
50163.0,STARLINK-3306,PAYLOAD,2022-09-10 05:50:55,15.08827721,0.0002037,53.217,209.3028,46.6688,313.4473,4.3022e-06,-2.2e-06,0.0,0 STARLINK-3306,1 50163U 21125H   22253.24369481 -.00000220  00000-0  43022-5 0  9998,2 50163  53.2170 209.3028 0002037  46.6688 313.4473 15.08827721 44036,6917.918000000002,95.438,541.192,538.374,0.0
50163.0,STARLINK-3306,PAYLOAD,2022-09-11 08:52:28,15.08838876,0.0001937,53.2171,204.2477,48.7737,311.3422,-2.0481e-05,-6.14e-06,0.0,0 STARLINK-3306,1 50163U 21125H   22254.36977503 -.00000614  00000-0 -20481-4 0  9993,2 50163  53.2171 204.2477 0001937  48.7737 311.3422 15.08838876 44208,6917.884,95.438,541.089,538.409,0.0
50163.0,STARLINK-3306,PAYLOAD,2022-09-12 05:32:29,15.08838798,0.0001841999999999,53.2172,200.3824,54.4378,305.6786,2.8469e-05,1.65e-06,0.0,0 STARLINK-3306,1 50163U 21125H   22255.23089246  .00000165  00000-0  28469-4 0  9991,2 50163  53.2172 200.3824 0001842  54.4378 305.6786 15.08838798 44338,6917.884,95.438,541.023,538.475,0.0
50163.0,STARLINK-3306,PAYLOAD,2022-09-13 02:12:30,15.08817365,0.0001908,53.2171,196.5156,54.3694,305.7476,0.00036017,5.445e-05,0.0,0 STARLINK-3306,1 50163U 21125H   22256.09201452  .00005445  00000-0  36017-3 0  9994,2 50163  53.2171 196.5156 0001908  54.3694 305.7476 15.08817365 43988,6917.95,95.439,541.135,538.495,0.0
50163.0,STARLINK-3306,PAYLOAD,2022-09-13 13:20:11,15.08847402,0.0001810999999999,53.2172,194.4344,52.4893,307.6263,8.7107e-05,1.099e-05,0.0,0 STARLINK-3306,1 50163U 21125H   22256.55568604  .00001099  00000-0  87107-4 0  9998,2 50163  53.2172 194.4344 0001811  52.4893 307.6263 15.08847402 44057,6917.858,95.437,540.976,538.47,0.0
50163.0,STARLINK-3306,PAYLOAD,2022-09-13 19:41:44,15.08843905,0.0001899999999999,53.2174,193.2453,54.42100000000001,305.6959,2.8585e-05,1.67e-06,0.0,0 STARLINK-3306,1 50163U 21125H   22256.82064952  .00000167  00000-0  28585-4 0  9995,2 50163  53.2174 193.2453 0001900  54.4210 305.6959 15.08843905 44572,6917.868,95.437,541.048,538.419,0.0
50163.0,STARLINK-3306,PAYLOAD,2022-09-14 02:03:16,15.08839038,0.0001940999999999,53.2173,192.0554,57.0386,303.0792,2.8318e-05,1.63e-06,0.0,0 STARLINK-3306,1 50163U 21125H   22257.08561088  .00000163  00000-0  28318-4 0  9996,2 50163  53.2173 192.0554 0001941  57.0386 303.0792 15.08839038 44139,6917.8830000000025,95.438,541.091,538.406,0.0
50163.0,STARLINK-3306,PAYLOAD,2022-09-14 05:14:03,15.08840639,0.0001749,53.2174,191.4619,56.1135,304.0023,-0.00010223,-1.915e-05,0.0,0 STARLINK-3306,1 50163U 21125H   22257.21809455 -.00001915  00000-0 -10223-3 0  9997,2 50163  53.2174 191.4619 0001749  56.1135 304.0023 15.08840639 44635,6917.878000000002,95.438,540.953,538.533,0.0
50163.0,STARLINK-3306,PAYLOAD,2022-09-14 13:10:58,15.08835897,0.0001545,53.2173,189.9749,58.4322,301.6821,1.8431e-05,5e-08,0.0,0 STARLINK-3306,1 50163U 21125H   22257.54929313  .00000005  00000-0  18431-4 0  9996,2 50163  53.2173 189.9749 0001545  58.4322 301.6821 15.08835897 44681,6917.893,95.438,540.827,538.689,0.0
50163.0,STARLINK-3306,PAYLOAD,2022-09-15 05:04:50,15.0884093,0.0001686,53.2174,187.0007,52.7296,307.385,2.6323e-06,-2.46e-06,0.0,0 STARLINK-3306,1 50163U 21125H   22258.21168985 -.00000246  00000-0  26323-5 0  9999,2 50163  53.2174 187.0007 0001686  52.7296 307.3850 15.08840930 44781,6917.878000000002,95.437,540.909,538.576,0.0
50163.0,STARLINK-3306,PAYLOAD,2022-09-16 01:44:50,15.08852669,0.0001657,53.2172,183.1348,48.1565,311.9568,-8.8093e-05,-1.6899999999999994e-05,0.0,0 STARLINK-3306,1 50163U 21125H   22259.07280411 -.00001690  00000-0 -88093-4 0  9999,2 50163  53.2172 183.1348 0001657  48.1565 311.9568 15.08852669 44431,6917.842,95.437,540.8530000000002,538.56,0.0
50163.0,STARLINK-3306,PAYLOAD,2022-09-17 04:46:25,15.08826019,0.0001727,53.2173,178.0792,54.7906,305.3248,-4.0708e-05,-9.36e-06,0.0,0 STARLINK-3306,1 50163U 21125H   22260.19890927 -.00000936  00000-0 -40708-4 0  9996,2 50163  53.2173 178.0792 0001727  54.7906 305.3248 15.08826019 45082,6917.9230000000025,95.438,540.9830000000002,538.5930000000002,0.0
50163.0,STARLINK-3306,PAYLOAD,2022-09-18 01:26:26,15.08832542,0.0001735,53.2177,174.2141,64.2836,295.8335,2.4891e-05,1.08e-06,0.0,0 STARLINK-3306,1 50163U 21125H   22261.06002640  .00000108  00000-0  24891-4 0  9994,2 50163  53.2177 174.2141 0001735  64.2836 295.8335 15.08832542 44738,6917.903,95.438,540.9680000000002,538.568,0.0
50163.0,STARLINK-3306,PAYLOAD,2022-09-18 04:37:13,15.08814643,0.0001723,53.2172,173.6209,75.1457,284.9726,0.00013072,1.792e-05,0.0,0 STARLINK-3306,1 50163U 21125H   22261.19251513  .00001792  00000-0  13072-3 0  9991,2 50163  53.2172 173.6209 0001723  75.1457 284.9726 15.08814643 44755,6917.958000000001,95.439,541.015,538.631,0.0
50163.0,STARLINK-3306,PAYLOAD,2022-09-19 02:52:36,15.08841853,0.0001885,53.2177,169.4581,51.5785,308.5377,0.00012372,1.682e-05,0.0,0 STARLINK-3306,1 50163U 21125H   22262.11986607  .00001682  00000-0  12372-3 0  9993,2 50163  53.2177 169.4581 0001885  51.5785 308.5377 15.08841853 44890,6917.875,95.437,541.044,538.436,0.0
50163.0,STARLINK-3306,PAYLOAD,2022-09-20 02:43:23,15.08844178,0.0001969,53.2178,164.9981,54.0714,306.0461,0.00012499,1.702e-05,0.0,0 STARLINK-3306,1 50163U 21125H   22263.11346232  .00001702  00000-0  12499-3 0  9991,2 50163  53.2178 164.9981 0001969  54.0714 306.0461 15.08844178 45529,6917.868,95.437,541.095,538.37,0.0
50163.0,STARLINK-3306,PAYLOAD,2022-09-21 02:34:10,15.0884658,0.0002179,53.218,160.5364,52.0002,308.1187,-9.4092e-06,-4.38e-06,0.0,0 STARLINK-3306,1 50163U 21125H   22264.10706287 -.00000438  00000-0 -94092-5 0  9999,2 50163  53.2180 160.5364 0002179  52.0002 308.1187 15.08846580 45191,6917.86,95.437,541.2330000000002,538.2180000000002,0.0
50163.0,STARLINK-3306,PAYLOAD,2022-09-21 20:03:25,15.0883858,0.0002018,53.2177,157.2682,58.5491,301.5698,-9.2421e-05,-1.759e-05,0.0,0 STARLINK-3306,1 50163U 21125H   22264.83570918 -.00001759  00000-0 -92421-4 0  9999,2 50163  53.2177 157.2682 0002018  58.5491 301.5698 15.08838580 45788,6917.885,95.438,541.146,538.354,0.0
50163.0,STARLINK-3306,PAYLOAD,2022-09-22 10:21:53,15.08839851,0.000176,53.2175,154.5897,58.0473,302.069,-6.448e-05,-1.314e-05,0.0,0 STARLINK-3306,1 50163U 21125H   22265.43186692 -.00001314  00000-0 -64480-4 0  9999,2 50163  53.2175 154.5897 0001760  58.0473 302.0690 15.08839851 45872,6917.880999999999,95.438,540.9630000000002,538.528,0.0
50163.0,STARLINK-3306,PAYLOAD,2022-09-22 21:29:34,15.08838104,0.000176,53.2174,152.5076,52.832,307.2832,9.9314e-05,1.293e-05,0.0,0 STARLINK-3306,1 50163U 21125H   22265.89554074  .00001293  00000-0  99314-4 0  9990,2 50163  53.2174 152.5076 0001760  52.8320 307.2832 15.08838104 45944,6917.886,95.438,540.969,538.534,0.0
50163.0,STARLINK-3306,PAYLOAD,2022-09-23 02:15:44,15.08830397,0.0001665999999999,53.2167,151.6152,48.9263,311.1873,3.6591e-05,2.94e-06,0.0,0 STARLINK-3306,1 50163U 21125H   22266.09426819  .00000294  00000-0  36591-4 0  9996,2 50163  53.2167 151.6152 0001666  48.9263 311.1873 15.08830397 45493,6917.91,95.438,540.927,538.622,0.0
50163.0,STARLINK-3306,PAYLOAD,2022-09-23 21:20:22,15.08837783,0.0001685,53.2178,148.0477,54.26,305.8549,7.8029e-05,9.54e-06,0.0,0 STARLINK-3306,1 50163U 21125H   22266.88914636  .00000954  00000-0  78029-4 0  9997,2 50163  53.2178 148.0477 0001685  54.2600 305.8549 15.08837783 45611,6917.887,95.438,540.918,538.587,0.0
50163.0,STARLINK-3306,PAYLOAD,2022-09-23 22:55:45,15.08837898,0.0001792,53.2177,147.751,50.0687,310.0463,7.3602e-05,8.83e-06,0.0,0 STARLINK-3306,1 50163U 21125H   22266.95538690  .00000883  00000-0  73602-4 0  9990,2 50163  53.2177 147.7510 0001792  50.0687 310.0463 15.08837898 46107,6917.887,95.438,540.991,538.512,0.0
50163.0,STARLINK-3306,PAYLOAD,2022-09-24 19:35:46,15.08842261,0.000187,53.2173,143.8853,54.4434,305.6732,2.3002e-05,7.8e-07,0.0,0 STARLINK-3306,1 50163U 21125H   22267.81650645  .00000078  00000-0  23002-4 0  9996,2 50163  53.2173 143.8853 0001870  54.4434 305.6732 15.08842261 46238,6917.873000000001,95.437,541.0319999999998,538.445,0.0
50163.0,STARLINK-3306,PAYLOAD,2022-09-25 01:57:18,15.08848477,0.0001847,53.2173,142.6954,52.4641,307.6519,4.6279e-05,4.49e-06,0.0,0 STARLINK-3306,1 50163U 21125H   22268.08146134  .00000449  00000-0  46279-4 0  9992,2 50163  53.2173 142.6954 0001847  52.4641 307.6519 15.08848477 45799,6917.854,95.437,540.997,538.442,0.0
50163.0,STARLINK-3306,PAYLOAD,2022-09-25 08:18:51,15.08837725,0.0001819,53.2173,141.5054,54.2092,305.9069,1.0203e-05,-1.26e-06,0.0,0 STARLINK-3306,1 50163U 21125H   22268.34642885 -.00000126  00000-0  10203-4 0  9996,2 50163  53.2173 141.5054 0001819  54.2092 305.9069 15.08837725 45837,6917.887,95.438,541.011,538.494,0.0
